<xml>
<item>
<COMMENT>GENERATED VIA SPACETRACK.ORG API</COMMENT>
<ORIGINATOR>18 SPCS</ORIGINATOR>
<NORAD_CAT_ID>55412</NORAD_CAT_ID>
<OBJECT_NAME>STARLINK-5033</OBJECT_NAME>
<OBJECT_TYPE>PAYLOAD</OBJECT_TYPE>
<CLASSIFICATION_TYPE>U</CLASSIFICATION_TYPE>
<INTLDES>23014X</INTLDES>
<EPOCH>2023-10-09 18:44:54</EPOCH>
<EPOCH_MICROSECONDS>799584</EPOCH_MICROSECONDS>
<MEAN_MOTION>14.98327503</MEAN_MOTION>
<ECCENTRICITY>0.0002858</ECCENTRICITY>
<INCLINATION>70</INCLINATION>
<RA_OF_ASC_NODE>147.9505</RA_OF_ASC_NODE>
<ARG_OF_PERICENTER>270.2525</ARG_OF_PERICENTER>
<MEAN_ANOMALY>89.8306</MEAN_ANOMALY>
<EPHEMERIS_TYPE>0</EPHEMERIS_TYPE>
<ELEMENT_SET_NO>999</ELEMENT_SET_NO>
<REV_AT_EPOCH>3852</REV_AT_EPOCH>
<BSTAR>-0.000088624</BSTAR>
<MEAN_MOTION_DOT>-0.0000115</MEAN_MOTION_DOT>
<MEAN_MOTION_DDOT>0</MEAN_MOTION_DDOT>
<FILE>4029247</FILE>
<TLE_LINE0>0 STARLINK-5033</TLE_LINE0>
<TLE_LINE1>1 55412U 23014X 23282.78118981 -.00001150 00000-0 -88624-4 0 9998</TLE_LINE1>
<TLE_LINE2>2 55412 70.0000 147.9505 0002858 270.2525 89.8306 14.98327503 38527</TLE_LINE2>
<OBJECT_ID>2023-014X</OBJECT_ID>
<OBJECT_NUMBER>55412</OBJECT_NUMBER>
<SEMIMAJOR_AXIS>6950.201</SEMIMAJOR_AXIS>
<PERIOD>96.107</PERIOD>
<APOGEE>574.052</APOGEE>
<PERIGEE>570.079</PERIGEE>
<DECAYED>0</DECAYED>
</item>
<item>
<COMMENT>GENERATED VIA SPACETRACK.ORG API</COMMENT>
<ORIGINATOR>18 SPCS</ORIGINATOR>
<NORAD_CAT_ID>55416</NORAD_CAT_ID>
<OBJECT_NAME>STARLINK-5624</OBJECT_NAME>
<OBJECT_TYPE>PAYLOAD</OBJECT_TYPE>
<CLASSIFICATION_TYPE>U</CLASSIFICATION_TYPE>
<INTLDES>23014AB</INTLDES>
<EPOCH>2023-10-09 19:02:42</EPOCH>
<EPOCH_MICROSECONDS>233568</EPOCH_MICROSECONDS>
<MEAN_MOTION>14.9832407</MEAN_MOTION>
<ECCENTRICITY>0.0003044</ECCENTRICITY>
<INCLINATION>70</INCLINATION>
<RA_OF_ASC_NODE>147.996</RA_OF_ASC_NODE>
<ARG_OF_PERICENTER>266.8779</ARG_OF_PERICENTER>
<MEAN_ANOMALY>93.2032</MEAN_ANOMALY>
<EPHEMERIS_TYPE>0</EPHEMERIS_TYPE>
<ELEMENT_SET_NO>999</ELEMENT_SET_NO>
<REV_AT_EPOCH>3852</REV_AT_EPOCH>
<BSTAR>0.000039584</BSTAR>
<MEAN_MOTION_DOT>0.00000379</MEAN_MOTION_DOT>
<MEAN_MOTION_DDOT>0</MEAN_MOTION_DDOT>
<FILE>4029237</FILE>
<TLE_LINE0>0 STARLINK-5624</TLE_LINE0>
<TLE_LINE1>1 55416U 23014AB 23282.79354437 .00000379 00000-0 39584-4 0 9992</TLE_LINE1>
<TLE_LINE2>2 55416 70.0000 147.9960 0003044 266.8779 93.2032 14.98324070 38527</TLE_LINE2>
<OBJECT_ID>2023-014AB</OBJECT_ID>
<OBJECT_NUMBER>55416</OBJECT_NUMBER>
<SEMIMAJOR_AXIS>6950.211</SEMIMAJOR_AXIS>
<PERIOD>96.107</PERIOD>
<APOGEE>574.192</APOGEE>
<PERIGEE>569.961</PERIGEE>
<DECAYED>0</DECAYED>
</item>
<item>
<COMMENT>GENERATED VIA SPACETRACK.ORG API</COMMENT>
<ORIGINATOR>18 SPCS</ORIGINATOR>
<NORAD_CAT_ID>55421</NORAD_CAT_ID>
<OBJECT_NAME>STARLINK-5598</OBJECT_NAME>
<OBJECT_TYPE>PAYLOAD</OBJECT_TYPE>
<CLASSIFICATION_TYPE>U</CLASSIFICATION_TYPE>
<INTLDES>23014AG</INTLDES>
<EPOCH>2023-10-09 19:08:42</EPOCH>
<EPOCH_MICROSECONDS>790272</EPOCH_MICROSECONDS>
<MEAN_MOTION>14.98330204</MEAN_MOTION>
<ECCENTRICITY>0.0002674</ECCENTRICITY>
<INCLINATION>70</INCLINATION>
<RA_OF_ASC_NODE>148.0087</RA_OF_ASC_NODE>
<ARG_OF_PERICENTER>263.9815</ARG_OF_PERICENTER>
<MEAN_ANOMALY>96.1039</MEAN_ANOMALY>
<EPHEMERIS_TYPE>0</EPHEMERIS_TYPE>
<ELEMENT_SET_NO>999</ELEMENT_SET_NO>
<REV_AT_EPOCH>3946</REV_AT_EPOCH>
<BSTAR>-0.000070891</BSTAR>
<MEAN_MOTION_DOT>-0.00000939</MEAN_MOTION_DOT>
<MEAN_MOTION_DDOT>0</MEAN_MOTION_DDOT>
<FILE>4029255</FILE>
<TLE_LINE0>0 STARLINK-5598</TLE_LINE0>
<TLE_LINE1>1 55421U 23014AG 23282.79771748 -.00000939 00000-0 -70891-4 0 9996</TLE_LINE1>
<TLE_LINE2>2 55421 70.0000 148.0087 0002674 263.9815 96.1039 14.98330204 39461</TLE_LINE2>
<OBJECT_ID>2023-014AG</OBJECT_ID>
<OBJECT_NUMBER>55421</OBJECT_NUMBER>
<SEMIMAJOR_AXIS>6950.192</SEMIMAJOR_AXIS>
<PERIOD>96.107</PERIOD>
<APOGEE>573.916</APOGEE>
<PERIGEE>570.199</PERIGEE>
<DECAYED>0</DECAYED>
</item>
<item>
<COMMENT>GENERATED VIA SPACETRACK.ORG API</COMMENT>
<ORIGINATOR>18 SPCS</ORIGINATOR>
<NORAD_CAT_ID>55275</NORAD_CAT_ID>
<OBJECT_NAME>STARLINK-5260</OBJECT_NAME>
<OBJECT_TYPE>PAYLOAD</OBJECT_TYPE>
<CLASSIFICATION_TYPE>U</CLASSIFICATION_TYPE>
<INTLDES>23010G</INTLDES>
<EPOCH>2023-10-09 20:13:48</EPOCH>
<EPOCH_MICROSECONDS>871200</EPOCH_MICROSECONDS>
<MEAN_MOTION>14.98328653</MEAN_MOTION>
<ECCENTRICITY>0.0002846</ECCENTRICITY>
<INCLINATION>70</INCLINATION>
<RA_OF_ASC_NODE>88.048</RA_OF_ASC_NODE>
<ARG_OF_PERICENTER>268.732</ARG_OF_PERICENTER>
<MEAN_ANOMALY>91.3513</MEAN_ANOMALY>
<EPHEMERIS_TYPE>0</EPHEMERIS_TYPE>
<ELEMENT_SET_NO>999</ELEMENT_SET_NO>
<REV_AT_EPOCH>4118</REV_AT_EPOCH>
<BSTAR>-0.000017213</BSTAR>
<MEAN_MOTION_DOT>-0.00000298</MEAN_MOTION_DOT>
<MEAN_MOTION_DDOT>0</MEAN_MOTION_DDOT>
<FILE>4029504</FILE>
<TLE_LINE0>0 STARLINK-5260</TLE_LINE0>
<TLE_LINE1>1 55275U 23010G 23282.84292675 -.00000298 00000-0 -17213-4 0 9999</TLE_LINE1>
<TLE_LINE2>2 55275 70.0000 88.0480 0002846 268.7320 91.3513 14.98328653 41184</TLE_LINE2>
<OBJECT_ID>2023-010G</OBJECT_ID>
<OBJECT_NUMBER>55275</OBJECT_NUMBER>
<SEMIMAJOR_AXIS>6950.197</SEMIMAJOR_AXIS>
<PERIOD>96.107</PERIOD>
<APOGEE>574.040</APOGEE>
<PERIGEE>570.084</PERIGEE>
<DECAYED>0</DECAYED>
</item>
<item>
<COMMENT>GENERATED VIA SPACETRACK.ORG API</COMMENT>
<ORIGINATOR>18 SPCS</ORIGINATOR>
<NORAD_CAT_ID>55275</NORAD_CAT_ID>
<OBJECT_NAME>STARLINK-5260</OBJECT_NAME>
<OBJECT_TYPE>PAYLOAD</OBJECT_TYPE>
<CLASSIFICATION_TYPE>U</CLASSIFICATION_TYPE>
<INTLDES>23010G</INTLDES>
<EPOCH>2023-10-09 20:13:48</EPOCH>
<EPOCH_MICROSECONDS>871200</EPOCH_MICROSECONDS>
<MEAN_MOTION>14.98328653</MEAN_MOTION>
<ECCENTRICITY>0.0002846</ECCENTRICITY>
<INCLINATION>70</INCLINATION>
<RA_OF_ASC_NODE>88.048</RA_OF_ASC_NODE>
<ARG_OF_PERICENTER>268.732</ARG_OF_PERICENTER>
<MEAN_ANOMALY>91.3513</MEAN_ANOMALY>
<EPHEMERIS_TYPE>0</EPHEMERIS_TYPE>
<ELEMENT_SET_NO>999</ELEMENT_SET_NO>
<REV_AT_EPOCH>4086</REV_AT_EPOCH>
<BSTAR>-0.000017213</BSTAR>
<MEAN_MOTION_DOT>-0.00000298</MEAN_MOTION_DOT>
<MEAN_MOTION_DDOT>0</MEAN_MOTION_DDOT>
<FILE>4029721</FILE>
<TLE_LINE0>0 STARLINK-5260</TLE_LINE0>
<TLE_LINE1>1 55275U 23010G 23282.84292675 -.00000298 00000-0 -17213-4 0 9999</TLE_LINE1>
<TLE_LINE2>2 55275 70.0000 88.0480 0002846 268.7320 91.3513 14.98328653 40868</TLE_LINE2>
<OBJECT_ID>2023-010G</OBJECT_ID>
<OBJECT_NUMBER>55275</OBJECT_NUMBER>
<SEMIMAJOR_AXIS>6950.197</SEMIMAJOR_AXIS>
<PERIOD>96.107</PERIOD>
<APOGEE>574.040</APOGEE>
<PERIGEE>570.084</PERIGEE>
<DECAYED>0</DECAYED>
</item>
<item>
<COMMENT>GENERATED VIA SPACETRACK.ORG API</COMMENT>
<ORIGINATOR>18 SPCS</ORIGINATOR>
<NORAD_CAT_ID>55419</NORAD_CAT_ID>
<OBJECT_NAME>STARLINK-5629</OBJECT_NAME>
<OBJECT_TYPE>PAYLOAD</OBJECT_TYPE>
<CLASSIFICATION_TYPE>U</CLASSIFICATION_TYPE>
<INTLDES>23014AE</INTLDES>
<EPOCH>2023-10-09 20:32:49</EPOCH>
<EPOCH_MICROSECONDS>677792</EPOCH_MICROSECONDS>
<MEAN_MOTION>14.98327455</MEAN_MOTION>
<ECCENTRICITY>0.0002877</ECCENTRICITY>
<INCLINATION>70</INCLINATION>
<RA_OF_ASC_NODE>147.8113</RA_OF_ASC_NODE>
<ARG_OF_PERICENTER>269.4715</ARG_OF_PERICENTER>
<MEAN_ANOMALY>90.6114</MEAN_ANOMALY>
<EPHEMERIS_TYPE>0</EPHEMERIS_TYPE>
<ELEMENT_SET_NO>999</ELEMENT_SET_NO>
<REV_AT_EPOCH>3947</REV_AT_EPOCH>
<BSTAR>-0.0000010761</BSTAR>
<MEAN_MOTION_DOT>-0.00000106</MEAN_MOTION_DOT>
<MEAN_MOTION_DDOT>0</MEAN_MOTION_DDOT>
<FILE>4029504</FILE>
<TLE_LINE0>0 STARLINK-5629</TLE_LINE0>
<TLE_LINE1>1 55419U 23014AE 23282.85613053 -.00000106 00000-0 -10761-5 0 9991</TLE_LINE1>
<TLE_LINE2>2 55419 70.0000 147.8113 0002877 269.4715 90.6114 14.98327455 39478</TLE_LINE2>
<OBJECT_ID>2023-014AE</OBJECT_ID>
<OBJECT_NUMBER>55419</OBJECT_NUMBER>
<SEMIMAJOR_AXIS>6950.201</SEMIMAJOR_AXIS>
<PERIOD>96.107</PERIOD>
<APOGEE>574.065</APOGEE>
<PERIGEE>570.066</PERIGEE>
<DECAYED>0</DECAYED>
</item>
<item>
<COMMENT>GENERATED VIA SPACETRACK.ORG API</COMMENT>
<ORIGINATOR>18 SPCS</ORIGINATOR>
<NORAD_CAT_ID>55416</NORAD_CAT_ID>
<OBJECT_NAME>STARLINK-5624</OBJECT_NAME>
<OBJECT_TYPE>PAYLOAD</OBJECT_TYPE>
<CLASSIFICATION_TYPE>U</CLASSIFICATION_TYPE>
<INTLDES>23014AB</INTLDES>
<EPOCH>2023-10-09 20:38:50</EPOCH>
<EPOCH_MICROSECONDS>326080</EPOCH_MICROSECONDS>
<MEAN_MOTION>14.98323506</MEAN_MOTION>
<ECCENTRICITY>0.0003073</ECCENTRICITY>
<INCLINATION>70</INCLINATION>
<RA_OF_ASC_NODE>147.8277</RA_OF_ASC_NODE>
<ARG_OF_PERICENTER>266.672</ARG_OF_PERICENTER>
<MEAN_ANOMALY>93.4087</MEAN_ANOMALY>
<EPHEMERIS_TYPE>0</EPHEMERIS_TYPE>
<ELEMENT_SET_NO>999</ELEMENT_SET_NO>
<REV_AT_EPOCH>3947</REV_AT_EPOCH>
<BSTAR>0.000045941</BSTAR>
<MEAN_MOTION_DOT>0.00000455</MEAN_MOTION_DOT>
<MEAN_MOTION_DDOT>0</MEAN_MOTION_DDOT>
<FILE>4029504</FILE>
<TLE_LINE0>0 STARLINK-5624</TLE_LINE0>
<TLE_LINE1>1 55416U 23014AB 23282.86030470 .00000455 00000-0 45941-4 0 9997</TLE_LINE1>
<TLE_LINE2>2 55416 70.0000 147.8277 0003073 266.6720 93.4087 14.98323506 39473</TLE_LINE2>
<OBJECT_ID>2023-014AB</OBJECT_ID>
<OBJECT_NUMBER>55416</OBJECT_NUMBER>
<SEMIMAJOR_AXIS>6950.213</SEMIMAJOR_AXIS>
<PERIOD>96.107</PERIOD>
<APOGEE>574.214</APOGEE>
<PERIGEE>569.942</PERIGEE>
<DECAYED>0</DECAYED>
</item>

</xml>
